NORAD_CAT_ID,OBJECT_NAME,OBJECT_TYPE,EPOCH,MEAN_MOTION,ECCENTRICITY,INCLINATION,RA_OF_ASC_NODE,ARG_OF_PERICENTER,MEAN_ANOMALY,BSTAR,MEAN_MOTION_DOT,MEAN_MOTION_DDOT,TLE_LINE0,TLE_LINE1,TLE_LINE2,SEMIMAJOR_AXIS,PERIOD,APOGEE,PERIGEE,DECAYED
52677.0,STARLINK-4028,PAYLOAD,2022-05-24 16:00:00,15.80021702,0.0001713,53.2162,267.0694,43.3135,146.3678,-0.0041448,-0.00724576,0.0,0 STARLINK-4028,1 52677U 22017X   22144.66667824 -.00724576  00000-0 -41448-2 0  9993,2 52677  53.2162 267.0694 0001713  43.3135 146.3678 15.80021702  1308,6708.516,91.138,331.53,329.232,0.0
52677.0,STARLINK-4028,PAYLOAD,2022-05-24 22:00:00,15.79669247,0.0001604,53.2172,265.8203,37.8828,134.4666,-0.0052051,-0.00879068,0.0,0 STARLINK-4028,1 52677U 22053X   22144.91667824 -.00879068  00000-0 -52051-2 0  9990,2 52677  53.2172 265.8203 0001604  37.8828 134.4666 15.79669247  1302,6709.514,91.158,332.455,330.30300000000005,0.0
52677.0,STARLINK-4028,PAYLOAD,2022-05-25 04:00:00,15.79193749,0.0001645,53.2174,264.5701,32.9925,121.6657,-0.0052746,-0.00872305,0.0,0 STARLINK-4028,1 52677U 22053X   22145.16667824 -.00872305  00000-0 -52746-2 0  9996,2 52677  53.2174 264.5701 0001645  32.9925 121.6657 15.79193749  1376,6710.861,91.186,333.83,331.622,0.0
52677.0,STARLINK-4028,PAYLOAD,2022-05-25 14:00:01,15.78410701,0.0002,53.2175,262.4927,21.9173,342.3048,-0.0055078,-0.00878425,0.0,0 STARLINK-4028,1 52677U 22053X   22145.58334491 -.00878425  00000-0 -55078-2 0  9993,2 52677  53.2175 262.4927 0002000  21.9173 342.3048 15.78410701  1301,6713.08,91.231,336.288,333.603,0.0
52677.0,STARLINK-4028,PAYLOAD,2022-05-25 20:00:01,15.7793839,0.000138,53.2171,261.2467,36.669,308.7251,-0.0056132,-0.00876265,0.0,0 STARLINK-4028,1 52677U 22053X   22145.83334491 -.00876265  00000-0 -56132-2 0  9993,2 52677  53.2171 261.2467 0001380  36.6690 308.7251 15.77938390  1489,6714.42,91.258,337.211,335.358,0.0
52677.0,STARLINK-4028,PAYLOAD,2022-05-25 22:00:00,15.77780542,0.0001495,53.2171,260.8307,36.8014,62.2235,-0.0056547,-0.00876491,0.0,0 STARLINK-4028,1 52677U 22053X   22145.91667824 -.00876491  00000-0 -56547-2 0  9992,2 52677  53.2171 260.8307 0001495  36.8014  62.2235 15.77780542  1305,6714.8669999999975,91.267,337.736,335.7290000000001,0.0
52677.0,STARLINK-4028,PAYLOAD,2022-05-26 14:00:01,15.76521964,0.0001957,53.2172,257.5128,26.2125,260.1479,-0.0059853,-0.00876933,0.0,0 STARLINK-4028,1 52677U 22053X   22146.58334491 -.00876933  00000-0 -59853-2 0  9991,2 52677  53.2172 257.5128 0001957  26.2125 260.1479 15.76521964  1308,6718.441,91.34,341.621,338.991,0.0
52677.0,STARLINK-4028,PAYLOAD,2022-05-26 20:00:01,15.76050046,0.0001405,53.2172,256.27,44.1081,221.7229,-0.0061,-0.00875148,0.0,0 STARLINK-4028,1 52677U 22053X   22146.83334491 -.00875148  00000-0 -61000-2 0  9993,2 52677  53.2172 256.2700 0001405  44.1081 221.7229 15.76050046  1649,6719.781999999997,91.368,342.591,340.7030000000001,0.0
52677.0,STARLINK-4028,PAYLOAD,2022-05-26 22:00:00,15.75892806,0.0001347,53.2173,255.8555,38.5297,340.3643,-0.0061492,-0.00875967,0.0,0 STARLINK-4028,1 52677U 22053X   22146.91667824 -.00875967  00000-0 -61492-2 0  9995,2 52677  53.2173 255.8555 0001347  38.5297 340.3643 15.75892806  1302,6720.229,91.377,342.999,341.189,0.0
52677.0,STARLINK-4028,PAYLOAD,2022-05-27 14:00:01,15.74632845,0.0002017,53.2175,252.5467,29.1565,172.5365,-0.0064821,-0.00873986,0.0,0 STARLINK-4028,1 52677U 22053X   22147.58334491 -.00873986  00000-0 -64821-2 0  9998,2 52677  53.2175 252.5467 0002017  29.1565 172.5365 15.74632845  1769,6723.813,91.45,347.034,344.32199999999995,0.0
52677.0,STARLINK-4028,PAYLOAD,2022-05-27 22:00:01,15.7399077,0.0001441999999999,53.2173,250.8936,42.7792,249.2472,-0.0064303,-0.00845733,0.0,0 STARLINK-4028,1 52677U 22053X   22147.91668981 -.00845733  00000-0 -64303-2 0  9993,2 52677  53.2173 250.8936 0001442  42.7792 249.2472 15.73990770  1307,6725.642,91.487,348.476,346.537,0.0
52677.0,STARLINK-4028,PAYLOAD,2022-05-28 04:00:00,15.73344987,0.000169,53.2172,249.6541,39.6565,229.533,-0.0015453,-0.00213418,0.0,0 STARLINK-4028,1 52677U 22053X   22148.16667824 -.00213418  00000-0 -15453-2 0  9997,2 52677  53.2172 249.6541 0001690  39.6565 229.5330 15.73344987  1859,6727.482,91.525,350.4840000000001,348.21,0.0
52677.0,STARLINK-4028,PAYLOAD,2022-05-28 12:00:00,15.73173195,0.0001565999999999,53.2158,248.0042,322.2417,35.9827,0.00020175,0.00027756,0.0,0 STARLINK-4028,1 52677U 22053X   22148.50001157  .00027756  00000-0  20175-3 0  9990,2 52677  53.2158 248.0042 0001566 322.2417  35.9827 15.73173195  1908,6727.972,91.535,350.89,348.783,0.0
52677.0,STARLINK-4028,PAYLOAD,2022-05-28 14:00:01,15.73158723,0.0001665999999999,53.2163,247.5928,323.3648,147.0908,0.00047192,0.00066016,0.0,0 STARLINK-4028,1 52677U 22053X   22148.58334491  .00066016  00000-0  47192-3 0  9998,2 52677  53.2163 247.5928 0001666 323.3648 147.0908 15.73158723  1309,6728.013000000001,91.536,350.999,348.75699999999995,0.0
52677.0,STARLINK-4028,PAYLOAD,2022-05-28 22:00:00,15.73331395,0.0001468,53.2153,245.9387,338.435,221.0006,-0.00051519,-0.00072709,0.0,0 STARLINK-4028,1 52677U 22053X   22148.91667824 -.00072709  00000-0 -51519-3 0  9990,2 52677  53.2153 245.9387 0001468 338.4350 221.0006 15.73331395  1979,6727.521,91.526,350.37300000000016,348.398,0.0
52677.0,STARLINK-4028,PAYLOAD,2022-05-29 12:00:00,15.73232667,0.0001501,53.2154,243.0523,8.8666,256.3174,-0.0010644,-0.0014762,0.0,0 STARLINK-4028,1 52677U 22053X   22149.50001157 -.00147620  00000-0 -10644-2 0  9995,2 52677  53.2154 243.0523 0001501   8.8666 256.3174 15.73232667  2067,6727.802,91.531,350.677,348.657,0.0
52677.0,STARLINK-4028,PAYLOAD,2022-05-29 14:00:01,15.7319199,0.0001574,53.2155,242.6403,11.5926,5.8327,-0.00075513,-0.0010525,0.0,0 STARLINK-4028,1 52677U 22053X   22149.58334491 -.00105250  00000-0 -75513-3 0  9993,2 52677  53.2155 242.6403 0001574  11.5926   5.8327 15.73191990  1306,6727.918000000002,91.534,350.842,348.724,0.0
52677.0,STARLINK-4028,PAYLOAD,2022-05-29 20:00:01,15.73130962,0.0001705,53.2147,241.403,16.9418,337.1547,0.00013681,0.00018567,0.0,0 STARLINK-4028,1 52677U 22053X   22149.83334491  .00018567  00000-0  13681-3 0  9991,2 52677  53.2147 241.4030 0001705  16.9418 337.1547 15.73130962  2118,6728.092,91.537,351.10400000000016,348.81,0.0
52677.0,STARLINK-4028,PAYLOAD,2022-05-29 20:01:33,15.73156758,0.0002449,53.2128,241.3964,24.0851,336.0284,-7.008100000000001e-05,-0.00010428,0.0,0 STARLINK-4028,1 52677U 22053X   22149.83441174 -.00010428  00000-0 -70081-4 0  9996,2 52677  53.2128 241.3964 0002449  24.0851 336.0284 15.73156758  2521,6728.018,91.536,351.531,348.236,0.0
52677.0,STARLINK-4028,PAYLOAD,2022-05-30 12:47:53,15.73027983,0.000231,53.2142,237.9386,10.9676,349.1394,-0.00068155,-0.00094523,0.0,0 STARLINK-4028,1 52677U 22053X   22150.53325927 -.00094523  00000-0 -68155-3 0  9998,2 52677  53.2142 237.9386 0002310  10.9676 349.1394 15.73027983  2223,6728.386,91.543,351.805,348.696,0.0
52677.0,STARLINK-4028,PAYLOAD,2022-05-30 20:25:15,15.73238399,0.0001713,53.2146,236.3669,38.9285,321.1858,0.00052219,0.00073432,0.0,0 STARLINK-4028,1 52677U 22053X   22150.85087808  .00073432  00000-0  52219-3 0  9994,2 52677  53.2146 236.3669 0001713  38.9285 321.1858 15.73238399  2271,6727.786,91.531,350.80300000000005,348.49800000000016,0.0
52677.0,STARLINK-4028,PAYLOAD,2022-05-30 22:00:00,15.73246572,0.0001892,53.2151,236.042,32.2575,340.6742,2.4813e-05,2.869e-05,0.0,0 STARLINK-4028,1 52677U 22053X   22150.91667824  .00002869  00000-0  24813-4 0  9999,2 52677  53.2151 236.0420 0001892  32.2575 340.6742 15.73246572  1309,6727.762,91.53,350.9,348.355,0.0
52677.0,STARLINK-4028,PAYLOAD,2022-05-31 04:00:00,15.73247899,0.0001774,53.2152,234.8036,33.5427,316.12,-0.00014763,-0.00021331,0.0,0 STARLINK-4028,1 52677U 22053X   22151.16667824 -.00021331  00000-0 -14763-3 0  9996,2 52677  53.2152 234.8036 0001774  33.5427 316.1200 15.73247899  2321,6727.759,91.53,350.81699999999995,348.43,0.0
52677.0,STARLINK-4028,PAYLOAD,2022-05-31 05:34:09,15.73228907,0.0001788,53.215,234.4804,43.7253,316.3908,0.00020855,0.00028785,0.0,0 STARLINK-4028,1 52677U 22053X   22151.23204925  .00028785  00000-0  20855-3 0  9990,2 52677  53.2150 234.4804 0001788  43.7253 316.3908 15.73228907  2745,6727.813,91.531,350.881,348.475,0.0
52677.0,STARLINK-4028,PAYLOAD,2022-05-31 19:17:27,15.73249675,0.0001915,53.2147,231.6518,30.5812,329.532,0.00016439,0.00022562,0.0,0 STARLINK-4028,1 52677U 22053X   22151.80378911  .00022562  00000-0  16439-3 0  9990,2 52677  53.2147 231.6518 0001915  30.5812 329.5320 15.73249675  2423,6727.754,91.53,350.907,348.33,0.0
52677.0,STARLINK-4028,PAYLOAD,2022-05-31 20:48:55,15.73253913,0.0001914,53.2148,231.3365,33.8243,326.2899,0.00018451,0.00025413,0.0,0 STARLINK-4028,1 52677U 22053X   22151.86731469  .00025413  00000-0  18451-3 0  9991,2 52677  53.2148 231.3365 0001914  33.8243 326.2899 15.73253913  2845,6727.741,91.53,350.894,348.319,0.0
52677.0,STARLINK-4028,PAYLOAD,2022-06-01 04:00:00,15.73198492,0.00017,53.2145,229.8551,24.9048,231.6584,0.00056436,0.00079332,0.0,0 STARLINK-4028,1 52677U 22053X   22152.16667824  .00079332  00000-0  56436-3 0  9992,2 52677  53.2145 229.8551 0001700  24.9048 231.6584 15.73198492  2488,6727.899,91.533,350.908,348.621,0.0
52677.0,STARLINK-4028,PAYLOAD,2022-06-01 20:00:01,15.732498,0.0002163,53.2144,226.5574,29.2781,45.2202,-0.00069637,-0.00097447,0.0,0 STARLINK-4028,1 52677U 22053X   22152.83334491 -.00097447  00000-0 -69637-3 0  9993,2 52677  53.2144 226.5574 0002163  29.2781  45.2202 15.73249800  2589,6727.753000000002,91.53,351.0730000000001,348.163,0.0
52677.0,STARLINK-4028,PAYLOAD,2022-06-02 20:04:46,15.73227594,0.000239,53.2145,221.5924,37.7778,322.341,8.7659e-05,0.00011713,0.0,0 STARLINK-4028,1 52677U 22053X   22153.83665431  .00011713  00000-0  87659-4 0  9990,2 52677  53.2145 221.5924 0002390  37.7778 322.3410 15.73227594  2740,6727.816999999999,91.532,351.289,348.074,0.0
